STARLINK-2319           
1 47790U 21018D   26068.63682306  .00000665  00000+0  34593-4 0  9999
2 47790  53.1599 216.9503 0001262 122.8406 237.2717 15.30195970277095
ION SCV-004             
1 50993U 22002K   26068.68892644  .00006538  00000+0  23198-3 0  9998
2 50993  97.2961 128.2294 0007216   1.6783 358.4480 15.29369331230088
